[{"OBJECT_NAME":"STARLINK-33793","OBJECT_ID":"2025-112V","EPOCH":"2026-03-09T17:22:57.327168","MEAN_MOTION":15.05648635,"ECCENTRICITY":0.00015617,"INCLINATION":97.602,"RA_OF_ASC_NODE":121.5618,"ARG_OF_PERICENTER":108.9125,"MEAN_ANOMALY":251.2271,"EPHEMERIS_TYPE":0,"CLASSIFICATION_TYPE":"U","NORAD_CAT_ID":64165,"ELEMENT_SET_NO":999,"REV_AT_EPOCH":4331,"BSTAR":0.00027204162,"MEAN_MOTION_DOT":3.867e-5,"MEAN_MOTION_DDOT":0},{"OBJECT_NAME":"INTERCOSMOS 25","OBJECT_ID":"1991-086A","EPOCH":"2026-03-09T17:46:01.385184","MEAN_MOTION":12.11998887,"ECCENTRICITY":0.14869778,"INCLINATION":82.6046,"RA_OF_ASC_NODE":309.9782,"ARG_OF_PERICENTER":116.8223,"MEAN_ANOMALY":259.2563,"EPHEMERIS_TYPE":0,"CLASSIFICATION_TYPE":"U","NORAD_CAT_ID":21819,"ELEMENT_SET_NO":999,"REV_AT_EPOCH":49669,"BSTAR":0.00031680054,"MEAN_MOTION_DOT":1.652e-5,"MEAN_MOTION_DDOT":0}]
